{"type": "FeatureCollection", "features": [ {"type": "Feature", "properties": {"norad_id": 33153, "name": "INTELSAT 25 (IS-25)", "group": "intelsat", "lat": -0.6037756407045302, "lon": -82.57383644214868, "alt_km": 35766.480481544604, "timestamp": "2025-12-20T14:38:01.626191+00:00", "meta": {"OBJECT_NAME": "INTELSAT 25 (IS-25)", "OBJECT_ID": "2008-034A", "EPOCH": "2025-12-20T03:15:38.761056", "MEAN_MOTION": 1.00270174, "ECCENTRICITY": 0.00048007, "INCLINATION": 2.2457, "RA_OF_ASC_NODE": 82.5709, "ARG_OF_PERICENTER": 187.3325, "MEAN_ANOMALY": 196.4726, "EPHEMERIS_TYPE": 0, "CLASSIFICATION_TYPE": "U", "NORAD_CAT_ID": 33153, "ELEMENT_SET_NO": 999, "REV_AT_EPOCH": 6390, "BSTAR": 0, "MEAN_MOTION_DOT": -2.02e-06, "MEAN_MOTION_DDOT": 0}, "tle": {"line1": "1 33153U 08034A   25354.13586529 -.00000202  00000+0  00000+0 0  9991", "line2": "2 33153   2.2457  82.5709 0004800 187.3325 196.4726  1.00270174 63904"}}, "geometry": {"type": "Point", "coordinates": [-82.57383644214868, -0.6037756407045302]}}, {"type": "Feature", "properties": {"norad_id": 33376, "name": "GALAXY 19 (G-19)", "group": "intelsat", "lat": -0.023353297830504112, "lon": -148.08704684848976, "alt_km": 35781.14960674876, "timestamp": "2025-12-20T14:38:01.626203+00:00", "meta": {"OBJECT_NAME": "GALAXY 19 (G-19)", "OBJECT_ID": "2008-045A", "EPOCH": "2025-12-20T05:07:10.727904", "MEAN_MOTION": 1.00271506, "ECCENTRICITY": 0.00025154, "INCLINATION": 0.0133, "RA_OF_ASC_NODE": 295.5153, "ARG_OF_PERICENTER": 338.3209, "MEAN_ANOMALY": 155.0094, "EPHEMERIS_TYPE": 0, "CLASSIFICATION_TYPE": "U", "NORAD_CAT_ID": 33376, "ELEMENT_SET_NO": 999, "REV_AT_EPOCH": 6310, "BSTAR": 0, "MEAN_MOTION_DOT": -1.15e-06, "MEAN_MOTION_DDOT": 0}, "tle": {"line1": "1 33376U 08045A   25354.21331861 -.00000115  00000+0  00000+0 0  9999", "line2": "2 33376   0.0133 295.5153 0002515 338.3209 155.0094  1.00271506 63108"}}, "geometry": {"type": "Point", "coordinates": [-148.08704684848976, -0.023353297830504112]}}, {"type": "Feature", "properties": {"norad_id": 35493, "name": "FM-5", "group": "intelsat", "lat": -0.032087556151258925, "lon": -137.18972944720903, "alt_km": 35784.49557723671, "timestamp": "2025-12-20T14:38:01.626214+00:00", "meta": {"OBJECT_NAME": "FM-5", "OBJECT_ID": "2009-034A", "EPOCH": "2025-12-20T04:13:38.642880", "MEAN_MOTION": 1.00271807, "ECCENTRICITY": 0.00010184, "INCLINATION": 0.0204, "RA_OF_ASC_NODE": 294.9415, "ARG_OF_PERICENTER": 220.2537, "MEAN_ANOMALY": 271.0907, "EPHEMERIS_TYPE": 0, "CLASSIFICATION_TYPE": "U", "NORAD_CAT_ID": 35493, "ELEMENT_SET_NO": 999, "REV_AT_EPOCH": 4484, "BSTAR": 0, "MEAN_MOTION_DOT": -1.76e-06, "MEAN_MOTION_DDOT": 0}, "tle": {"line1": "1 35493U 09034A   25354.17614170 -.00000176  00000+0  00000+0 0  9999", "line2": "2 35493   0.0204 294.9415 0001018 220.2537 271.0907  1.00271807 44849"}}, "geometry": {"type": "Point", "coordinates": [-137.18972944720903, -0.032087556151258925]}}, {"type": "Feature", "properties": {"norad_id": 36097, "name": "INTELSAT 14 (IS-14)", "group": "intelsat", "lat": -0.040359452590182594, "lon": -96.05994437974702, "alt_km": 35776.37406213243, "timestamp": "2025-12-20T14:38:01.626225+00:00", "meta": {"OBJECT_NAME": "INTELSAT 14 (IS-14)", "OBJECT_ID": "2009-064A", "EPOCH": "2025-12-20T03:23:38.704416", "MEAN_MOTION": 1.00271079, "ECCENTRICITY": 0.00024493, "INCLINATION": 0.0128, "RA_OF_ASC_NODE": 357.8431, "ARG_OF_PERICENTER": 282.4538, "MEAN_ANOMALY": 174.6048, "EPHEMERIS_TYPE": 0, "CLASSIFICATION_TYPE": "U", "NORAD_CAT_ID": 36097, "ELEMENT_SET_NO": 999, "REV_AT_EPOCH": 5881, "BSTAR": 0, "MEAN_MOTION_DOT": -2.49e-06, "MEAN_MOTION_DDOT": 0}, "tle": {"line1": "1 36097U 09064A   25354.14142019 -.00000249  00000+0  00000+0 0  9999", "line2": "2 36097   0.0128 357.8431 0002449 282.4538 174.6048  1.00271079 58819"}}, "geometry": {"type": "Point", "coordinates": [-96.05994437974702, -0.040359452590182594]}}, {"type": "Feature", "properties": {"norad_id": 36106, "name": "INTELSAT 15 (IS-15)", "group": "intelsat", "lat": 0.017060153993370304, "lon": 34.122844260857114, "alt_km": 35789.75398608792, "timestamp": "2025-12-20T14:38:01.626237+00:00", "meta": {"OBJECT_NAME": "INTELSAT 15 (IS-15)", "OBJECT_ID": "2009-067A", "EPOCH": "2025-12-20T01:39:03.237408", "MEAN_MOTION": 1.00272051, "ECCENTRICITY": 0.00021385, "INCLINATION": 0.012, "RA_OF_ASC_NODE": 15.9079, "ARG_OF_PERICENTER": 264.0966, "MEAN_ANOMALY": 278.8284, "EPHEMERIS_TYPE": 0, "CLASSIFICATION_TYPE": "U", "NORAD_CAT_ID": 36106, "ELEMENT_SET_NO": 999, "REV_AT_EPOCH": 3943, "BSTAR": 0, "MEAN_MOTION_DOT": -1.61e-06, "MEAN_MOTION_DDOT": 0}, "tle": {"line1": "1 36106U 09067A   25354.06878747 -.00000161  00000+0  00000+0 0  9991", "line2": "2 36106   0.0120  15.9079 0002138 264.0966 278.8284  1.00272051 39435"}}, "geometry": {"type": "Point", "coordinates": [34.122844260857114, 0.017060153993370304]}}, {"type": "Feature", "properties": {"norad_id": 36131, "name": "DIRECTV 12", "group": "intelsat", "lat": -0.0003422966037163986, "lon": -153.76456167326873, "alt_km": 35786.685657775255, "timestamp": "2025-12-20T14:38:01.626249+00:00", "meta": {"OBJECT_NAME": "DIRECTV 12", "OBJECT_ID": "2009-075A", "EPOCH": "2025-12-19T13:24:30.815136", "MEAN_MOTION": 1.00274473, "ECCENTRICITY": 4.78e-05, "INCLINATION": 0.0149, "RA_OF_ASC_NODE": 93.7995, "ARG_OF_PERICENTER": 244.7113, "MEAN_ANOMALY": 208.3134, "EPHEMERIS_TYPE": 0, "CLASSIFICATION_TYPE": "U", "NORAD_CAT_ID": 36131, "ELEMENT_SET_NO": 999, "REV_AT_EPOCH": 4475, "BSTAR": 0, "MEAN_MOTION_DOT": -8e-07, "MEAN_MOTION_DDOT": 0}, "tle": {"line1": "1 36131U 09075A   25353.55868999 -.00000080  00000+0  00000+0 0  9999", "line2": "2 36131   0.0149  93.7995 0000478 244.7113 208.3134  1.00274473 44752"}}, "geometry": {"type": "Point", "coordinates": [-153.76456167326873, -0.0003422966037163986]}}, {"type": "Feature", "properties": {"norad_id": 36397, "name": "INTELSAT 16 (IS-16)", "group": "intelsat", "lat": -0.03407669289823234, "lon": -127.2644955215394, "alt_km": 35780.036476620866, "timestamp": "2025-12-20T14:38:01.626262+00:00", "meta": {"OBJECT_NAME": "INTELSAT 16 (IS-16)", "OBJECT_ID": "2010-006A", "EPOCH": "2025-12-20T02:35:47.219424", "MEAN_MOTION": 1.00271903, "ECCENTRICITY": 0.0001819, "INCLINATION": 0.0114, "RA_OF_ASC_NODE": 343.9056, "ARG_OF_PERICENTER": 287.0054, "MEAN_ANOMALY": 140.7925, "EPHEMERIS_TYPE": 0, "CLASSIFICATION_TYPE": "U", "NORAD_CAT_ID": 36397, "ELEMENT_SET_NO": 999, "REV_AT_EPOCH": 5785, "BSTAR": 0, "MEAN_MOTION_DOT": -2.21e-06, "MEAN_MOTION_DDOT": 0}, "tle": {"line1": "1 36397U 10006A   25354.10818541 -.00000221  00000+0  00000+0 0  9996", "line2": "2 36397   0.0114 343.9056 0001819 287.0054 140.7925  1.00271903 57857"}}, "geometry": {"type": "Point", "coordinates": [-127.2644955215394, -0.03407669289823234]}}, {"type": "Feature", "properties": {"norad_id": 37185, "name": "XM-5", "group": "intelsat", "lat": -0.06357668856790882, "lon": -166.23236242742922, "alt_km": 35780.50047676219, "timestamp": "2025-12-20T14:38:01.626273+00:00", "meta": {"OBJECT_NAME": "XM-5", "OBJECT_ID": "2010-053A", "EPOCH": "2025-12-20T00:57:20.858400", "MEAN_MOTION": 1.00271954, "ECCENTRICITY": 0.00020049, "INCLINATION": 0.0636, "RA_OF_ASC_NODE": 271.3259, "ARG_OF_PERICENTER": 233.6386, "MEAN_ANOMALY": 203.0633, "EPHEMERIS_TYPE": 0, "CLASSIFICATION_TYPE": "U", "NORAD_CAT_ID": 37185, "ELEMENT_SET_NO": 999, "REV_AT_EPOCH": 5568, "BSTAR": 0, "MEAN_MOTION_DOT": 1e-08, "MEAN_MOTION_DDOT": 0}, "tle": {"line1": "1 37185U 10053A   25354.03982475  .00000001  00000+0  00000+0 0  9999", "line2": "2 37185   0.0636 271.3259 0002004 233.6386 203.0633  1.00271954 55687"}}, "geometry": {"type": "Point", "coordinates": [-166.23236242742922, -0.06357668856790882]}}, {"type": "Feature", "properties": {"norad_id": 37238, "name": "INTELSAT 17 (IS-17)", "group": "intelsat", "lat": -0.0009918819999922548, "lon": 14.963225830660576, "alt_km": 35786.018240078585, "timestamp": "2025-12-20T14:38:01.626286+00:00", "meta": {"OBJECT_NAME": "INTELSAT 17 (IS-17)", "OBJECT_ID": "2010-065B", "EPOCH": "2025-12-20T04:59:03.496704", "MEAN_MOTION": 1.00271062, "ECCENTRICITY": 0.00026646, "INCLINATION": 0.0019, "RA_OF_ASC_NODE": 97.7927, "ARG_OF_PERICENTER": 188.5995, "MEAN_ANOMALY": 303.4123, "EPHEMERIS_TYPE": 0, "CLASSIFICATION_TYPE": "U", "NORAD_CAT_ID": 37238, "ELEMENT_SET_NO": 999, "REV_AT_EPOCH": 5145, "BSTAR": 0, "MEAN_MOTION_DOT": 2.2e-07, "MEAN_MOTION_DDOT": 0}, "tle": {"line1": "1 37238U 10065B   25354.20767936  .00000022  00000+0  00000+0 0  9996", "line2": "2 37238   0.0019  97.7927 0002664 188.5995 303.4123  1.00271062 51459"}}, "geometry": {"type": "Point", "coordinates": [14.963225830660576, -0.0009918819999922548]}}, {"type": "Feature", "properties": {"norad_id": 37392, "name": "INTELSAT 28 (IS-28)", "group": "intelsat", "lat": -0.31295873765218957, "lon": -82.75490831620861, "alt_km": 35771.09937469775, "timestamp": "2025-12-20T14:38:01.626297+00:00", "meta": {"OBJECT_NAME": "INTELSAT 28 (IS-28)", "OBJECT_ID": "2011-016A", "EPOCH": "2025-12-20T03:15:38.761056", "MEAN_MOTION": 1.00270022, "ECCENTRICITY": 0.00036825, "INCLINATION": 1.3426, "RA_OF_ASC_NODE": 84.9767, "ARG_OF_PERICENTER": 187.705, "MEAN_ANOMALY": 193.5111, "EPHEMERIS_TYPE": 0, "CLASSIFICATION_TYPE": "U", "NORAD_CAT_ID": 37392, "ELEMENT_SET_NO": 999, "REV_AT_EPOCH": 5149, "BSTAR": 0, "MEAN_MOTION_DOT": -2.02e-06, "MEAN_MOTION_DDOT": 0}, "tle": {"line1": "1 37392U 11016A   25354.13586529 -.00000202  00000+0  00000+0 0  9994", "line2": "2 37392   1.3426  84.9767 0003682 187.7050 193.5111  1.00270022 51494"}}, "geometry": {"type": "Point", "coordinates": [-82.75490831620861, -0.31295873765218957]}}]}